[{"OBJECT_NAME":"AL MUNTHER","OBJECT_ID":"2025-052AG","EPOCH":"2026-03-09T15:29:23.207136","MEAN_MOTION":15.28381521,"ECCENTRICITY":0.0008027,"INCLINATION":97.4001,"RA_OF_ASC_NODE":323.9152,"ARG_OF_PERICENTER":130.7043,"MEAN_ANOMALY":229.4895,"EPHEMERIS_TYPE":0,"CLASSIFICATION_TYPE":"U","NORAD_CAT_ID":63240,"ELEMENT_SET_NO":999,"REV_AT_EPOCH":5479,"BSTAR":0.00065015,"MEAN_MOTION_DOT":0.00017933,"MEAN_MOTION_DDOT":0},{"OBJECT_NAME":"STARLINK-36423","OBJECT_ID":"2026-008D","EPOCH":"2026-03-09T10:23:06.144864","MEAN_MOTION":15.27585154,"ECCENTRICITY":0.00016452,"INCLINATION":42.9989,"RA_OF_ASC_NODE":206.6197,"ARG_OF_PERICENTER":267.6574,"MEAN_ANOMALY":92.4089,"EPHEMERIS_TYPE":0,"CLASSIFICATION_TYPE":"U","NORAD_CAT_ID":67448,"ELEMENT_SET_NO":999,"REV_AT_EPOCH":953,"BSTAR":0.0009336997,"MEAN_MOTION_DOT":0.00025525,"MEAN_MOTION_DDOT":0}]
